    CJ95O010  1997 03 29.6884  0.911359  0.994936  130.5984  283.3688   88.9864  20200707  -2.0  4.0  C/1995 O1 (Hale-Bopp)                                    MPC106342
0001P         1986 01 20.4321  0.604387  0.966180  111.2268   58.2875  162.3035  20200707   4.0  6.0  1P/Halley                                                 98, 1083
